[{"OBJECT_NAME":"FLOCK 4G-9","OBJECT_ID":"2025-009P","EPOCH":"2026-03-09T19:25:28.387776","MEAN_MOTION":15.26202239,"ECCENTRICITY":0.00036141,"INCLINATION":97.4,"RA_OF_ASC_NODE":150.6115,"ARG_OF_PERICENTER":328.2191,"MEAN_ANOMALY":31.8829,"EPHEMERIS_TYPE":0,"CLASSIFICATION_TYPE":"U","NORAD_CAT_ID":62622,"ELEMENT_SET_NO":999,"REV_AT_EPOCH":6369,"BSTAR":0.00041816911,"MEAN_MOTION_DOT":0.00010752,"MEAN_MOTION_DDOT":0},{"OBJECT_NAME":"FLOCK 4G-31","OBJECT_ID":"2025-009AV","EPOCH":"2026-03-09T17:55:44.365728","MEAN_MOTION":15.26963037,"ECCENTRICITY":5.975e-5,"INCLINATION":97.4007,"RA_OF_ASC_NODE":151.027,"ARG_OF_PERICENTER":42.5998,"MEAN_ANOMALY":317.5288,"EPHEMERIS_TYPE":0,"CLASSIFICATION_TYPE":"U","NORAD_CAT_ID":62652,"ELEMENT_SET_NO":999,"REV_AT_EPOCH":6372,"BSTAR":0.00048078603,"MEAN_MOTION_DOT":0.00012662,"MEAN_MOTION_DDOT":0}]
